ORBCOMM FM33            
1 25983U 99065D   24281.80168266  .00006182  00000+0  20469-2 0  9999
2 25983  45.0271 117.7154 0008770 226.1621 133.8504 14.38535749299706
ORBCOMM FM36            
1 25984U 99065E   24282.19677937  .00027041  00000+0  91220-2 0  9993
2 25984  45.0384 203.8680 0002901  92.8996 267.2184 14.36605967298754
ORBCOMM FM35            
1 25985U 99065F   24282.15515524  .00017635  00000+0  60587-2 0  9993
2 25985  45.0382 207.3261 0002853 235.4114 124.6465 14.35904567298733
ORBCOMM FM34            
1 25986U 99065G   24282.12740777  .00019014  00000+0  65258-2 0  9994
2 25986  45.0379 208.0056 0002433 158.9203 201.1745 14.35916896298697
ORBCOMM FM38            
1 33060U 08031A   24281.83807713  .00010814  00000+0  14751-2 0  9991
2 33060  48.4398  75.9758 0004489  28.0693 332.0463 14.78959651877361
ORBCOMM FM41            
1 33061U 08031B   24282.21447163  .00027303  00000+0  36961-2 0  9992
2 33061  48.4436  81.1754 0003871  11.4338 158.4903 14.78686143877357
ORBCOMM FM29            
1 33062U 08031C   24282.20767624  .00027837  00000+0  37684-2 0  9994
2 33062  48.4383  89.2294 0005589  14.6398 155.5227 14.78670753877218
ORBCOMM FM39            
1 33063U 08031D   24281.84490377  .00008450  00000+0  12004-2 0  9991
2 33063  48.4392 112.6888 0006756 348.1834  11.8921 14.77466563876457
