<?xml version="1.0" encoding="UTF-8"?>
<ndm xmlns:xsi="http://www.w3.org/2001/XMLSchema-instance" xsi:noNamespaceSchemaLocation="https://sanaregistry.org/r/ndmxml_unqualified/ndmxml-2.0.0-master-2.0.xsd">
<omm id="CCSDS_OMM_VERS" version="2.0">
<header><CREATION_DATE/><ORIGINATOR/></header><body><segment><metadata><OBJECT_NAME>ORBCOMM FM33</OBJECT_NAME><OBJECT_ID>1999-065D</OBJECT_ID><CENTER_NAME>EARTH</CENTER_NAME><REF_FRAME>TEME</REF_FRAME><TIME_SYSTEM>UTC</TIME_SYSTEM><MEAN_ELEMENT_THEORY>SGP4</MEAN_ELEMENT_THEORY></metadata><data><meanElements><EPOCH>2024-10-07T19:14:25.381824</EPOCH><MEAN_MOTION>14.38535749</MEAN_MOTION><ECCENTRICITY>.000877</ECCENTRICITY><INCLINATION>45.0271</INCLINATION><RA_OF_ASC_NODE>117.7154</RA_OF_ASC_NODE><ARG_OF_PERICENTER>226.1621</ARG_OF_PERICENTER><MEAN_ANOMALY>133.8504</MEAN_ANOMALY></meanElements><tleParameters><EPHEMERIS_TYPE>0</EPHEMERIS_TYPE><CLASSIFICATION_TYPE>U</CLASSIFICATION_TYPE><NORAD_CAT_ID>25983</NORAD_CAT_ID><ELEMENT_SET_NO>999</ELEMENT_SET_NO><REV_AT_EPOCH>29970</REV_AT_EPOCH><BSTAR>.20469E-2</BSTAR><MEAN_MOTION_DOT>.6182E-4</MEAN_MOTION_DOT><MEAN_MOTION_DDOT>0</MEAN_MOTION_DDOT></tleParameters></data></segment></body></omm>
<omm id="CCSDS_OMM_VERS" version="2.0">
<header><CREATION_DATE/><ORIGINATOR/></header><body><segment><metadata><OBJECT_NAME>ORBCOMM FM36</OBJECT_NAME><OBJECT_ID>1999-065E</OBJECT_ID><CENTER_NAME>EARTH</CENTER_NAME><REF_FRAME>TEME</REF_FRAME><TIME_SYSTEM>UTC</TIME_SYSTEM><MEAN_ELEMENT_THEORY>SGP4</MEAN_ELEMENT_THEORY></metadata><data><meanElements><EPOCH>2024-10-08T04:43:21.737568</EPOCH><MEAN_MOTION>14.36605967</MEAN_MOTION><ECCENTRICITY>.0002901</ECCENTRICITY><INCLINATION>45.0384</INCLINATION><RA_OF_ASC_NODE>203.8680</RA_OF_ASC_NODE><ARG_OF_PERICENTER>92.8996</ARG_OF_PERICENTER><MEAN_ANOMALY>267.2184</MEAN_ANOMALY></meanElements><tleParameters><EPHEMERIS_TYPE>0</EPHEMERIS_TYPE><CLASSIFICATION_TYPE>U</CLASSIFICATION_TYPE><NORAD_CAT_ID>25984</NORAD_CAT_ID><ELEMENT_SET_NO>999</ELEMENT_SET_NO><REV_AT_EPOCH>29875</REV_AT_EPOCH><BSTAR>.9122E-2</BSTAR><MEAN_MOTION_DOT>.27041E-3</MEAN_MOTION_DOT><MEAN_MOTION_DDOT>0</MEAN_MOTION_DDOT></tleParameters></data></segment></body></omm>
<omm id="CCSDS_OMM_VERS" version="2.0">
<header><CREATION_DATE/><ORIGINATOR/></header><body><segment><metadata><OBJECT_NAME>ORBCOMM FM35</OBJECT_NAME><OBJECT_ID>1999-065F</OBJECT_ID><CENTER_NAME>EARTH</CENTER_NAME><REF_FRAME>TEME</REF_FRAME><TIME_SYSTEM>UTC</TIME_SYSTEM><MEAN_ELEMENT_THEORY>SGP4</MEAN_ELEMENT_THEORY></metadata><data><meanElements><EPOCH>2024-10-08T03:43:25.412736</EPOCH><MEAN_MOTION>14.35904567</MEAN_MOTION><ECCENTRICITY>.0002853</ECCENTRICITY><INCLINATION>45.0382</INCLINATION><RA_OF_ASC_NODE>207.3261</RA_OF_ASC_NODE><ARG_OF_PERICENTER>235.4114</ARG_OF_PERICENTER><MEAN_ANOMALY>124.6465</MEAN_ANOMALY></meanElements><tleParameters><EPHEMERIS_TYPE>0</EPHEMERIS_TYPE><CLASSIFICATION_TYPE>U</CLASSIFICATION_TYPE><NORAD_CAT_ID>25985</NORAD_CAT_ID><ELEMENT_SET_NO>999</ELEMENT_SET_NO><REV_AT_EPOCH>29873</REV_AT_EPOCH><BSTAR>.60587E-2</BSTAR><MEAN_MOTION_DOT>.17635E-3</MEAN_MOTION_DOT><MEAN_MOTION_DDOT>0</MEAN_MOTION_DDOT></tleParameters></data></segment></body></omm>
<omm id="CCSDS_OMM_VERS" version="2.0">
<header><CREATION_DATE/><ORIGINATOR/></header><body><segment><metadata><OBJECT_NAME>ORBCOMM FM34</OBJECT_NAME><OBJECT_ID>1999-065G</OBJECT_ID><CENTER_NAME>EARTH</CENTER_NAME><REF_FRAME>TEME</REF_FRAME><TIME_SYSTEM>UTC</TIME_SYSTEM><MEAN_ELEMENT_THEORY>SGP4</MEAN_ELEMENT_THEORY></metadata><data><meanElements><EPOCH>2024-10-08T03:03:28.031328</EPOCH><MEAN_MOTION>14.35916896</MEAN_MOTION><ECCENTRICITY>.0002433</ECCENTRICITY><INCLINATION>45.0379</INCLINATION><RA_OF_ASC_NODE>208.0056</RA_OF_ASC_NODE><ARG_OF_PERICENTER>158.9203</ARG_OF_PERICENTER><MEAN_ANOMALY>201.1745</MEAN_ANOMALY></meanElements><tleParameters><EPHEMERIS_TYPE>0</EPHEMERIS_TYPE><CLASSIFICATION_TYPE>U</CLASSIFICATION_TYPE><NORAD_CAT_ID>25986</NORAD_CAT_ID><ELEMENT_SET_NO>999</ELEMENT_SET_NO><REV_AT_EPOCH>29869</REV_AT_EPOCH><BSTAR>.65258E-2</BSTAR><MEAN_MOTION_DOT>.19014E-3</MEAN_MOTION_DOT><MEAN_MOTION_DDOT>0</MEAN_MOTION_DDOT></tleParameters></data></segment></body></omm>
<omm id="CCSDS_OMM_VERS" version="2.0">
<header><CREATION_DATE/><ORIGINATOR/></header><body><segment><metadata><OBJECT_NAME>ORBCOMM FM38</OBJECT_NAME><OBJECT_ID>2008-031A</OBJECT_ID><CENTER_NAME>EARTH</CENTER_NAME><REF_FRAME>TEME</REF_FRAME><TIME_SYSTEM>UTC</TIME_SYSTEM><MEAN_ELEMENT_THEORY>SGP4</MEAN_ELEMENT_THEORY></metadata><data><meanElements><EPOCH>2024-10-07T20:06:49.864032</EPOCH><MEAN_MOTION>14.78959651</MEAN_MOTION><ECCENTRICITY>.0004489</ECCENTRICITY><INCLINATION>48.4398</INCLINATION><RA_OF_ASC_NODE>75.9758</RA_OF_ASC_NODE><ARG_OF_PERICENTER>28.0693</ARG_OF_PERICENTER><MEAN_ANOMALY>332.0463</MEAN_ANOMALY></meanElements><tleParameters><EPHEMERIS_TYPE>0</EPHEMERIS_TYPE><CLASSIFICATION_TYPE>U</CLASSIFICATION_TYPE><NORAD_CAT_ID>33060</NORAD_CAT_ID><ELEMENT_SET_NO>999</ELEMENT_SET_NO><REV_AT_EPOCH>87736</REV_AT_EPOCH><BSTAR>.14751E-2</BSTAR><MEAN_MOTION_DOT>.10814E-3</MEAN_MOTION_DOT><MEAN_MOTION_DDOT>0</MEAN_MOTION_DDOT></tleParameters></data></segment></body></omm>
<omm id="CCSDS_OMM_VERS" version="2.0">
<header><CREATION_DATE/><ORIGINATOR/></header><body><segment><metadata><OBJECT_NAME>ORBCOMM FM41</OBJECT_NAME><OBJECT_ID>2008-031B</OBJECT_ID><CENTER_NAME>EARTH</CENTER_NAME><REF_FRAME>TEME</REF_FRAME><TIME_SYSTEM>UTC</TIME_SYSTEM><MEAN_ELEMENT_THEORY>SGP4</MEAN_ELEMENT_THEORY></metadata><data><meanElements><EPOCH>2024-10-08T05:08:50.348832</EPOCH><MEAN_MOTION>14.78686143</MEAN_MOTION><ECCENTRICITY>.0003871</ECCENTRICITY><INCLINATION>48.4436</INCLINATION><RA_OF_ASC_NODE>81.1754</RA_OF_ASC_NODE><ARG_OF_PERICENTER>11.4338</ARG_OF_PERICENTER><MEAN_ANOMALY>158.4903</MEAN_ANOMALY></meanElements><tleParameters><EPHEMERIS_TYPE>0</EPHEMERIS_TYPE><CLASSIFICATION_TYPE>U</CLASSIFICATION_TYPE><NORAD_CAT_ID>33061</NORAD_CAT_ID><ELEMENT_SET_NO>999</ELEMENT_SET_NO><REV_AT_EPOCH>87735</REV_AT_EPOCH><BSTAR>.36961E-2</BSTAR><MEAN_MOTION_DOT>.27303E-3</MEAN_MOTION_DOT><MEAN_MOTION_DDOT>0</MEAN_MOTION_DDOT></tleParameters></data></segment></body></omm>
<omm id="CCSDS_OMM_VERS" version="2.0">
<header><CREATION_DATE/><ORIGINATOR/></header><body><segment><metadata><OBJECT_NAME>ORBCOMM FM29</OBJECT_NAME><OBJECT_ID>2008-031C</OBJECT_ID><CENTER_NAME>EARTH</CENTER_NAME><REF_FRAME>TEME</REF_FRAME><TIME_SYSTEM>UTC</TIME_SYSTEM><MEAN_ELEMENT_THEORY>SGP4</MEAN_ELEMENT_THEORY></metadata><data><meanElements><EPOCH>2024-10-08T04:59:03.227136</EPOCH><MEAN_MOTION>14.78670753</MEAN_MOTION><ECCENTRICITY>.0005589</ECCENTRICITY><INCLINATION>48.4383</INCLINATION><RA_OF_ASC_NODE>89.2294</RA_OF_ASC_NODE><ARG_OF_PERICENTER>14.6398</ARG_OF_PERICENTER><MEAN_ANOMALY>155.5227</MEAN_ANOMALY></meanElements><tleParameters><EPHEMERIS_TYPE>0</EPHEMERIS_TYPE><CLASSIFICATION_TYPE>U</CLASSIFICATION_TYPE><NORAD_CAT_ID>33062</NORAD_CAT_ID><ELEMENT_SET_NO>999</ELEMENT_SET_NO><REV_AT_EPOCH>87721</REV_AT_EPOCH><BSTAR>.37684E-2</BSTAR><MEAN_MOTION_DOT>.27837E-3</MEAN_MOTION_DOT><MEAN_MOTION_DDOT>0</MEAN_MOTION_DDOT></tleParameters></data></segment></body></omm>
<omm id="CCSDS_OMM_VERS" version="2.0">
<header><CREATION_DATE/><ORIGINATOR/></header><body><segment><metadata><OBJECT_NAME>ORBCOMM FM39</OBJECT_NAME><OBJECT_ID>2008-031D</OBJECT_ID><CENTER_NAME>EARTH</CENTER_NAME><REF_FRAME>TEME</REF_FRAME><TIME_SYSTEM>UTC</TIME_SYSTEM><MEAN_ELEMENT_THEORY>SGP4</MEAN_ELEMENT_THEORY></metadata><data><meanElements><EPOCH>2024-10-07T20:16:39.685728</EPOCH><MEAN_MOTION>14.77466563</MEAN_MOTION><ECCENTRICITY>.0006756</ECCENTRICITY><INCLINATION>48.4392</INCLINATION><RA_OF_ASC_NODE>112.6888</RA_OF_ASC_NODE><ARG_OF_PERICENTER>348.1834</ARG_OF_PERICENTER><MEAN_ANOMALY>11.8921</MEAN_ANOMALY></meanElements><tleParameters><EPHEMERIS_TYPE>0</EPHEMERIS_TYPE><CLASSIFICATION_TYPE>U</CLASSIFICATION_TYPE><NORAD_CAT_ID>33063</NORAD_CAT_ID><ELEMENT_SET_NO>999</ELEMENT_SET_NO><REV_AT_EPOCH>87645</REV_AT_EPOCH><BSTAR>.12004E-2</BSTAR><MEAN_MOTION_DOT>.845E-4</MEAN_MOTION_DOT><MEAN_MOTION_DDOT>0</MEAN_MOTION_DDOT></tleParameters></data></segment></body></omm>

</ndm>
